{"type":"FeatureCollection","features":[{"type":"Feature","properties":{"name":"Wimmera River","cat":"water","rank":1,"kind":"river"},"geometry":{"type":"Point","coordinates":[142.20611,-36.71873]}},{"type":"Feature","properties":{"name":"Apex Island","cat":"park","rank":2,"kind":"park"},"geometry":{"type":"Point","coordinates":[142.19338,-36.72546]}},{"type":"Feature","properties":{"name":"Aquatic Centre","cat":"sport","rank":2,"kind":"sports_centre"},"geometry":{"type":"Point","coordinates":[142.20039,-36.71831]}},{"type":"Feature","properties":{"name":"Botanic Gardens","cat":"park","rank":2,"kind":"park"},"geometry":{"type":"Point","coordinates":[142.19831,-36.72158]}},{"type":"Feature","properties":{"name":"Cemetery","cat":"park","rank":2,"kind":"cemetery"},"geometry":{"type":"Point","coordinates":[142.19969,-36.69747]}},{"type":"Feature","properties":{"name":"City Oval","cat":"park","rank":2,"kind":"pitch"},"geometry":{"type":"Point","coordinates":[142.20108,-36.72126]}},{"type":"Feature","properties":{"name":"Horsham Park","cat":"park","rank":2,"kind":"recreation_ground"},"geometry":{"type":"Point","coordinates":[142.2131,-36.71047]}},{"type":"Feature","properties":{"name":"Hospital","cat":"health","rank":2,"kind":"hospital"},"geometry":{"type":"Point","coordinates":[142.20898,-36.7131]}},{"type":"Feature","properties":{"name":"May Park","cat":"park","rank":2,"kind":"park"},"geometry":{"type":"Point","coordinates":[142.19759,-36.71146]}},{"type":"Feature","properties":{"name":"Racecourse","cat":"park","rank":2,"kind":"park"},"geometry":{"type":"Point","coordinates":[142.18972,-36.71433]}},{"type":"Feature","properties":{"name":"Sawyer Park","cat":"park","rank":2,"kind":"park"},"geometry":{"type":"Point","coordinates":[142.20175,-36.72287]}},{"type":"Feature","properties":{"name":"Showgrounds","cat":"park","rank":2,"kind":"recreation_ground"},"geometry":{"type":"Point","coordinates":[142.20723,-36.72103]}},{"type":"Feature","properties":{"name":"Southbank Wetlands","cat":"park","rank":2,"kind":"park"},"geometry":{"type":"Point","coordinates":[142.19805,-36.72917]}},{"type":"Feature","properties":{"name":"Aldi","cat":"shop","rank":3,"kind":"supermarket"},"geometry":{"type":"Point","coordinates":[142.19769,-36.71824]}},{"type":"Feature","properties":{"name":"Art Gallery","cat":"civic","rank":3,"kind":"arts_centre"},"geometry":{"type":"Point","coordinates":[142.19843,-36.71646]}},{"type":"Feature","properties":{"name":"Bunnings","cat":"shop","rank":3,"kind":"doityourself"},"geometry":{"type":"Point","coordinates":[142.20157,-36.71629]}},{"type":"Feature","properties":{"name":"Cinemas","cat":"civic","rank":3,"kind":"cinema"},"geometry":{"type":"Point","coordinates":[142.2011,-36.71583]}},{"type":"Feature","properties":{"name":"Coles","cat":"shop","rank":3,"kind":"supermarket"},"geometry":{"type":"Point","coordinates":[142.19782,-36.71393]}},{"type":"Feature","properties":{"name":"Gateway","cat":"shop","rank":3,"kind":"mall"},"geometry":{"type":"Point","coordinates":[142.19396,-36.71603]}},{"type":"Feature","properties":{"name":"Harvey Norman","cat":"shop","rank":3,"kind":"department_store"},"geometry":{"type":"Point","coordinates":[142.19886,-36.71831]}},{"type":"Feature","properties":{"name":"Horsham College","cat":"edu","rank":3,"kind":"school"},"geometry":{"type":"Point","coordinates":[142.18522,-36.71066]}},{"type":"Feature","properties":{"name":"Horsham Primary","cat":"edu","rank":3,"kind":"school"},"geometry":{"type":"Point","coordinates":[142.21557,-36.71078]}},{"type":"Feature","properties":{"name":"Hungry Jack's","cat":"shop","rank":3,"kind":"fast_food"},"geometry":{"type":"Point","coordinates":[142.19494,-36.71029]}},{"type":"Feature","properties":{"name":"KFC","cat":"shop","rank":3,"kind":"fast_food"},"geometry":{"type":"Point","coordinates":[142.19589,-36.71072]}},{"type":"Feature","properties":{"name":"Kmart","cat":"shop","rank":3,"kind":"department_store"},"geometry":{"type":"Point","coordinates":[142.19564,-36.71561]}},{"type":"Feature","properties":{"name":"McDonald's","cat":"shop","rank":3,"kind":"fast_food"},"geometry":{"type":"Point","coordinates":[142.19493,-36.70933]}},{"type":"Feature","properties":{"name":"Mitre 10","cat":"shop","rank":3,"kind":"hardware"},"geometry":{"type":"Point","coordinates":[142.20562,-36.71689]}},{"type":"Feature","properties":{"name":"Plaza","cat":"shop","rank":3,"kind":"mall"},"geometry":{"type":"Point","coordinates":[142.19584,-36.71544]}},{"type":"Feature","properties":{"name":"St Brigid's","cat":"edu","rank":3,"kind":"school"},"geometry":{"type":"Point","coordinates":[142.20963,-36.71632]}},{"type":"Feature","properties":{"name":"Supercheap Auto","cat":"shop","rank":3,"kind":"car_parts"},"geometry":{"type":"Point","coordinates":[142.1956,-36.71696]}},{"type":"Feature","properties":{"name":"Target","cat":"shop","rank":3,"kind":"department_store"},"geometry":{"type":"Point","coordinates":[142.19447,-36.71612]}},{"type":"Feature","properties":{"name":"Visitor Centre","cat":"civic","rank":3,"kind":"information"},"geometry":{"type":"Point","coordinates":[142.19845,-36.7157]}},{"type":"Feature","properties":{"name":"Woolworths","cat":"shop","rank":3,"kind":"supermarket"},"geometry":{"type":"Point","coordinates":[142.19614,-36.71615]}},{"type":"Feature","properties":{"name":"Ag Vic","cat":"civic","rank":5,"kind":"industrial"},"geometry":{"type":"Point","coordinates":[142.17263,-36.72139]}},{"type":"Feature","properties":{"name":"Amcal","cat":"health","rank":4,"kind":"pharmacy"},"geometry":{"type":"Point","coordinates":[142.19938,-36.71528]}},{"type":"Feature","properties":{"name":"Ampol","cat":"fuel","rank":4,"kind":"fuel"},"geometry":{"type":"Point","coordinates":[142.20178,-36.71203]}},{"type":"Feature","properties":{"name":"Apex Playground","cat":"park","rank":4,"kind":"playground"},"geometry":{"type":"Point","coordinates":[142.19304,-36.72582]}},{"type":"Feature","properties":{"name":"BP","cat":"fuel","rank":4,"kind":"fuel"},"geometry":{"type":"Point","coordinates":[142.19788,-36.71089]}},{"type":"Feature","properties":{"name":"Basketball Stadium","cat":"sport","rank":4,"kind":"sports_centre"},"geometry":{"type":"Point","coordinates":[142.20555,-36.71903]}},{"type":"Feature","properties":{"name":"CFA","cat":"civic","rank":4,"kind":"fire_station"},"geometry":{"type":"Point","coordinates":[142.20075,-36.71321]}},{"type":"Feature","properties":{"name":"Casuarina Kinder","cat":"edu","rank":4,"kind":"kindergarten"},"geometry":{"type":"Point","coordinates":[142.20883,-36.72648]}},{"type":"Feature","properties":{"name":"Charisma Park","cat":"park","rank":4,"kind":"park"},"geometry":{"type":"Point","coordinates":[142.20726,-36.70137]}},{"type":"Feature","properties":{"name":"Church of Christ","cat":"civic","rank":4,"kind":"place_of_worship"},"geometry":{"type":"Point","coordinates":[142.20208,-36.73176]}},{"type":"Feature","properties":{"name":"City Bowls","cat":"sport","rank":4,"kind":"sports_centre"},"geometry":{"type":"Point","coordinates":[142.19455,-36.71262]}},{"type":"Feature","properties":{"name":"Clark Rubber","cat":"shop","rank":4,"kind":"doityourself"},"geometry":{"type":"Point","coordinates":[142.20195,-36.71691]}},{"type":"Feature","properties":{"name":"College Oval","cat":"park","rank":4,"kind":"pitch"},"geometry":{"type":"Point","coordinates":[142.18332,-36.7107]}},{"type":"Feature","properties":{"name":"Community Kids","cat":"edu","rank":4,"kind":"childcare"},"geometry":{"type":"Point","coordinates":[142.2014,-36.71137]}},{"type":"Feature","properties":{"name":"Cornell Park","cat":"park","rank":4,"kind":"park"},"geometry":{"type":"Point","coordinates":[142.20274,-36.70327]}},{"type":"Feature","properties":{"name":"Coughlin Park","cat":"park","rank":4,"kind":"pitch"},"geometry":{"type":"Point","coordinates":[142.20838,-36.71615]}},{"type":"Feature","properties":{"name":"Court House","cat":"civic","rank":4,"kind":"courthouse"},"geometry":{"type":"Point","coordinates":[142.20121,-36.71389]}},{"type":"Feature","properties":{"name":"Dental Group","cat":"health","rank":4,"kind":"dentist"},"geometry":{"type":"Point","coordinates":[142.19779,-36.71333]}},{"type":"Feature","properties":{"name":"Dog Park","cat":"park","rank":4,"kind":"dog_park"},"geometry":{"type":"Point","coordinates":[142.18811,-36.71764]}},{"type":"Feature","properties":{"name":"Dorevitch","cat":"health","rank":4,"kind":"doctors"},"geometry":{"type":"Point","coordinates":[142.20036,-36.7119]}},{"type":"Feature","properties":{"name":"Endeavour","cat":"fuel","rank":4,"kind":"fuel"},"geometry":{"type":"Point","coordinates":[142.19926,-36.73556]}},{"type":"Feature","properties":{"name":"Federation Uni","cat":"edu","rank":4,"kind":"university"},"geometry":{"type":"Point","coordinates":[142.1851,-36.71246]}},{"type":"Feature","properties":{"name":"Foundry Park","cat":"park","rank":4,"kind":"park"},"geometry":{"type":"Point","coordinates":[142.21287,-36.70242]}},{"type":"Feature","properties":{"name":"Goodstart","cat":"edu","rank":4,"kind":"kindergarten"},"geometry":{"type":"Point","coordinates":[142.19785,-36.71862]}},{"type":"Feature","properties":{"name":"Hamilton Lamb Hall","cat":"civic","rank":4,"kind":"community_centre"},"geometry":{"type":"Point","coordinates":[142.20054,-36.704]}},{"type":"Feature","properties":{"name":"Horsham West Primary","cat":"edu","rank":4,"kind":"school"},"geometry":{"type":"Point","coordinates":[142.17909,-36.71733]}},{"type":"Feature","properties":{"name":"Jardwa Park","cat":"park","rank":4,"kind":"park"},"geometry":{"type":"Point","coordinates":[142.20837,-36.71434]}},{"type":"Feature","properties":{"name":"Kalkee Hub","cat":"civic","rank":4,"kind":"community_centre"},"geometry":{"type":"Point","coordinates":[142.20133,-36.7036]}},{"type":"Feature","properties":{"name":"Kingdom Hall","cat":"civic","rank":4,"kind":"place_of_worship"},"geometry":{"type":"Point","coordinates":[142.19402,-36.70976]}},{"type":"Feature","properties":{"name":"Lanes & Games","cat":"sport","rank":4,"kind":"sports_centre"},"geometry":{"type":"Point","coordinates":[142.18357,-36.70613]}},{"type":"Feature","properties":{"name":"Langlands Park","cat":"park","rank":4,"kind":"park"},"geometry":{"type":"Point","coordinates":[142.1891,-36.70347]}},{"type":"Feature","properties":{"name":"Latter-day Saints","cat":"civic","rank":4,"kind":"place_of_worship"},"geometry":{"type":"Point","coordinates":[142.20023,-36.71138]}},{"type":"Feature","properties":{"name":"Lawrence St Park","cat":"park","rank":4,"kind":"park"},"geometry":{"type":"Point","coordinates":[142.21554,-36.70696]}},{"type":"Feature","properties":{"name":"Library","cat":"civic","rank":4,"kind":"library"},"geometry":{"type":"Point","coordinates":[142.20135,-36.71485]}},{"type":"Feature","properties":{"name":"Lister House","cat":"health","rank":4,"kind":"clinic"},"geometry":{"type":"Point","coordinates":[142.2009,-36.71146]}},{"type":"Feature","properties":{"name":"Lutheran Church","cat":"civic","rank":4,"kind":"place_of_worship"},"geometry":{"type":"Point","coordinates":[142.20463,-36.7114]}},{"type":"Feature","properties":{"name":"Lutheran School","cat":"edu","rank":4,"kind":"school"},"geometry":{"type":"Point","coordinates":[142.21778,-36.70764]}},{"type":"Feature","properties":{"name":"OTR","cat":"fuel","rank":4,"kind":"fuel"},"geometry":{"type":"Point","coordinates":[142.19674,-36.71687]}},{"type":"Feature","properties":{"name":"Oatlands Park","cat":"park","rank":4,"kind":"park"},"geometry":{"type":"Point","coordinates":[142.19922,-36.70277]}},{"type":"Feature","properties":{"name":"Outdoor Gym","cat":"sport","rank":4,"kind":"fitness_station"},"geometry":{"type":"Point","coordinates":[142.18959,-36.72499]}},{"type":"Feature","properties":{"name":"Pacific Fuel","cat":"fuel","rank":4,"kind":"fuel"},"geometry":{"type":"Point","coordinates":[142.19876,-36.73577]}},{"type":"Feature","properties":{"name":"Peppertree Track","cat":"park","rank":4,"kind":"park"},"geometry":{"type":"Point","coordinates":[142.22155,-36.70918]}},{"type":"Feature","properties":{"name":"Playland","cat":"park","rank":4,"kind":"playground"},"geometry":{"type":"Point","coordinates":[142.19498,-36.70923]}},{"type":"Feature","properties":{"name":"Police Paddock","cat":"park","rank":4,"kind":"nature_reserve"},"geometry":{"type":"Point","coordinates":[142.21385,-36.69443]}},{"type":"Feature","properties":{"name":"Post Office","cat":"civic","rank":4,"kind":"post_office"},"geometry":{"type":"Point","coordinates":[142.19996,-36.7133]}},{"type":"Feature","properties":{"name":"Presbyterian","cat":"civic","rank":4,"kind":"place_of_worship"},"geometry":{"type":"Point","coordinates":[142.20128,-36.70466]}},{"type":"Feature","properties":{"name":"Pump Track","cat":"sport","rank":4,"kind":"skateboard"},"geometry":{"type":"Point","coordinates":[142.19471,-36.7252]}},{"type":"Feature","properties":{"name":"Rasmussen Primary","cat":"edu","rank":4,"kind":"school"},"geometry":{"type":"Point","coordinates":[142.20437,-36.6978]}},{"type":"Feature","properties":{"name":"Roberts Ave Kinder","cat":"edu","rank":4,"kind":"kindergarten"},"geometry":{"type":"Point","coordinates":[142.20156,-36.7144]}},{"type":"Feature","properties":{"name":"Salvation Army","cat":"civic","rank":4,"kind":"place_of_worship"},"geometry":{"type":"Point","coordinates":[142.20131,-36.70516]}},{"type":"Feature","properties":{"name":"Shell","cat":"fuel","rank":4,"kind":"fuel"},"geometry":{"type":"Point","coordinates":[142.19907,-36.71151]}},{"type":"Feature","properties":{"name":"Skate Park","cat":"park","rank":4,"kind":"pitch"},"geometry":{"type":"Point","coordinates":[142.19261,-36.71568]}},{"type":"Feature","properties":{"name":"Special School","cat":"edu","rank":4,"kind":"school"},"geometry":{"type":"Point","coordinates":[142.18801,-36.70797]}},{"type":"Feature","properties":{"name":"Sports & Leisure","cat":"sport","rank":4,"kind":"sports"},"geometry":{"type":"Point","coordinates":[142.19953,-36.71478]}},{"type":"Feature","properties":{"name":"Ss Michael & John","cat":"edu","rank":4,"kind":"school"},"geometry":{"type":"Point","coordinates":[142.20357,-36.71355]}},{"type":"Feature","properties":{"name":"St John's","cat":"civic","rank":4,"kind":"place_of_worship"},"geometry":{"type":"Point","coordinates":[142.19966,-36.71144]}},{"type":"Feature","properties":{"name":"St Michael & John's","cat":"civic","rank":4,"kind":"place_of_worship"},"geometry":{"type":"Point","coordinates":[142.20273,-36.71337]}},{"type":"Feature","properties":{"name":"Sunnyside Bowls","cat":"sport","rank":4,"kind":"sports_centre"},"geometry":{"type":"Point","coordinates":[142.21263,-36.71115]}},{"type":"Feature","properties":{"name":"TerryWhite","cat":"health","rank":4,"kind":"pharmacy"},"geometry":{"type":"Point","coordinates":[142.19951,-36.7138]}},{"type":"Feature","properties":{"name":"Tristar","cat":"health","rank":4,"kind":"doctors"},"geometry":{"type":"Point","coordinates":[142.19841,-36.71828]}},{"type":"Feature","properties":{"name":"Uebergang Park","cat":"park","rank":4,"kind":"park"},"geometry":{"type":"Point","coordinates":[142.20858,-36.7285]}},{"type":"Feature","properties":{"name":"Uniting Church","cat":"civic","rank":4,"kind":"place_of_worship"},"geometry":{"type":"Point","coordinates":[142.20284,-36.71509]}},{"type":"Feature","properties":{"name":"Vet Clinic","cat":"health","rank":4,"kind":"veterinary"},"geometry":{"type":"Point","coordinates":[142.19388,-36.70962]}},{"type":"Feature","properties":{"name":"Water Play","cat":"park","rank":4,"kind":"playground"},"geometry":{"type":"Point","coordinates":[142.19749,-36.72412]}},{"type":"Feature","properties":{"name":"Wesley Theatre","cat":"civic","rank":4,"kind":"theatre"},"geometry":{"type":"Point","coordinates":[142.20196,-36.71462]}},{"type":"Feature","properties":{"name":"Windsor Court Park","cat":"park","rank":4,"kind":"park"},"geometry":{"type":"Point","coordinates":[142.17731,-36.72608]}},{"type":"Feature","properties":{"name":"Woolworths Petrol","cat":"fuel","rank":4,"kind":"fuel"},"geometry":{"type":"Point","coordinates":[142.19507,-36.71687]}},{"type":"Feature","properties":{"name":"ANZ","cat":"place","rank":5,"kind":"bank"},"geometry":{"type":"Point","coordinates":[142.19999,-36.71513]}},{"type":"Feature","properties":{"name":"ARB","cat":"shop","rank":5,"kind":"car"},"geometry":{"type":"Point","coordinates":[142.20477,-36.72096]}},{"type":"Feature","properties":{"name":"Adventure Golf","cat":"place","rank":5,"kind":"miniature_golf"},"geometry":{"type":"Point","coordinates":[142.20369,-36.72876]}},{"type":"Feature","properties":{"name":"Apex BBQ","cat":"place","rank":5,"kind":"picnic_site"},"geometry":{"type":"Point","coordinates":[142.19356,-36.72576]}},{"type":"Feature","properties":{"name":"AutoTech","cat":"shop","rank":5,"kind":"car"},"geometry":{"type":"Point","coordinates":[142.19185,-36.70814]}},{"type":"Feature","properties":{"name":"AutoWorks","cat":"place","rank":5,"kind":"car_repair"},"geometry":{"type":"Point","coordinates":[142.21079,-36.73696]}},{"type":"Feature","properties":{"name":"BWS","cat":"shop","rank":5,"kind":"alcohol"},"geometry":{"type":"Point","coordinates":[142.19793,-36.71767]}},{"type":"Feature","properties":{"name":"Bakers Delight","cat":"shop","rank":5,"kind":"bakery"},"geometry":{"type":"Point","coordinates":[142.1968,-36.71644]}},{"type":"Feature","properties":{"name":"Barbeques Galore","cat":"place","rank":5,"kind":"outdoor"},"geometry":{"type":"Point","coordinates":[142.19661,-36.71734]}},{"type":"Feature","properties":{"name":"Bearings","cat":"shop","rank":5,"kind":"hardware"},"geometry":{"type":"Point","coordinates":[142.19669,-36.71767]}},{"type":"Feature","properties":{"name":"Bendigo Bank","cat":"place","rank":5,"kind":"bank"},"geometry":{"type":"Point","coordinates":[142.19953,-36.71488]}},{"type":"Feature","properties":{"name":"Bull & Mouth","cat":"shop","rank":5,"kind":"pub"},"geometry":{"type":"Point","coordinates":[142.19811,-36.71682]}},{"type":"Feature","properties":{"name":"Burson","cat":"shop","rank":5,"kind":"car"},"geometry":{"type":"Point","coordinates":[142.19946,-36.71895]}},{"type":"Feature","properties":{"name":"CBA","cat":"place","rank":5,"kind":"bank"},"geometry":{"type":"Point","coordinates":[142.19997,-36.71488]}},{"type":"Feature","properties":{"name":"Capital","cat":"stay","rank":5,"kind":"motel"},"geometry":{"type":"Point","coordinates":[142.20019,-36.71752]}},{"type":"Feature","properties":{"name":"Cheeky Fox","cat":"shop","rank":5,"kind":"cafe"},"geometry":{"type":"Point","coordinates":[142.19998,-36.71278]}},{"type":"Feature","properties":{"name":"Chickpea","cat":"shop","rank":5,"kind":"cafe"},"geometry":{"type":"Point","coordinates":[142.19921,-36.71531]}},{"type":"Feature","properties":{"name":"Commercial Hotel","cat":"shop","rank":5,"kind":"pub"},"geometry":{"type":"Point","coordinates":[142.19898,-36.71645]}},{"type":"Feature","properties":{"name":"Country City","cat":"stay","rank":5,"kind":"motel"},"geometry":{"type":"Point","coordinates":[142.20102,-36.71926]}},{"type":"Feature","properties":{"name":"Cruisers","cat":"place","rank":5,"kind":"car_wash"},"geometry":{"type":"Point","coordinates":[142.19663,-36.71426]}},{"type":"Feature","properties":{"name":"Cyclery","cat":"place","rank":5,"kind":"bicycle"},"geometry":{"type":"Point","coordinates":[142.19744,-36.7176]}},{"type":"Feature","properties":{"name":"Darlot","cat":"stay","rank":5,"kind":"motel"},"geometry":{"type":"Point","coordinates":[142.20588,-36.72946]}},{"type":"Feature","properties":{"name":"Domino's","cat":"shop","rank":5,"kind":"fast_food"},"geometry":{"type":"Point","coordinates":[142.19996,-36.71259]}},{"type":"Feature","properties":{"name":"Eureka Village","cat":"place","rank":5,"kind":"social_facility"},"geometry":{"type":"Point","coordinates":[142.20189,-36.72524]}},{"type":"Feature","properties":{"name":"Exchange Hotel","cat":"shop","rank":5,"kind":"pub"},"geometry":{"type":"Point","coordinates":[142.19931,-36.71577]}},{"type":"Feature","properties":{"name":"Exhaust Centre","cat":"shop","rank":5,"kind":"car"},"geometry":{"type":"Point","coordinates":[142.19201,-36.70823]}},{"type":"Feature","properties":{"name":"Farmhouse","cat":"shop","rank":5,"kind":"cafe"},"geometry":{"type":"Point","coordinates":[142.19903,-36.71453]}},{"type":"Feature","properties":{"name":"Foodary","cat":"shop","rank":5,"kind":"convenience"},"geometry":{"type":"Point","coordinates":[142.20176,-36.71214]}},{"type":"Feature","properties":{"name":"GWMWater","cat":"place","rank":5,"kind":"industrial"},"geometry":{"type":"Point","coordinates":[142.21509,-36.70776]}},{"type":"Feature","properties":{"name":"Glynlea","cat":"stay","rank":5,"kind":"motel"},"geometry":{"type":"Point","coordinates":[142.20445,-36.72686]}},{"type":"Feature","properties":{"name":"Golden Grain","cat":"stay","rank":5,"kind":"motel"},"geometry":{"type":"Point","coordinates":[142.19731,-36.71028]}},{"type":"Feature","properties":{"name":"Goodyear","cat":"place","rank":5,"kind":"car_repair"},"geometry":{"type":"Point","coordinates":[142.19916,-36.71204]}},{"type":"Feature","properties":{"name":"Holiday Park","cat":"stay","rank":5,"kind":"caravan_site"},"geometry":{"type":"Point","coordinates":[142.2176,-36.74494]}},{"type":"Feature","properties":{"name":"Horsham House","cat":"stay","rank":5,"kind":"guest_house"},"geometry":{"type":"Point","coordinates":[142.20064,-36.71444]}},{"type":"Feature","properties":{"name":"Horsham Motel","cat":"stay","rank":5,"kind":"motel"},"geometry":{"type":"Point","coordinates":[142.19542,-36.71044]}},{"type":"Feature","properties":{"name":"International Hotel","cat":"stay","rank":5,"kind":"hotel"},"geometry":{"type":"Point","coordinates":[142.20289,-36.71138]}},{"type":"Feature","properties":{"name":"Larder","cat":"shop","rank":5,"kind":"cafe"},"geometry":{"type":"Point","coordinates":[142.19913,-36.71412]}},{"type":"Feature","properties":{"name":"Leading Edge","cat":"place","rank":5,"kind":"electronics"},"geometry":{"type":"Point","coordinates":[142.19833,-36.71765]}},{"type":"Feature","properties":{"name":"Lester's","cat":"shop","rank":5,"kind":"car"},"geometry":{"type":"Point","coordinates":[142.19946,-36.72034]}},{"type":"Feature","properties":{"name":"Lutheran Homes","cat":"place","rank":5,"kind":"social_facility"},"geometry":{"type":"Point","coordinates":[142.21562,-36.70884]}},{"type":"Feature","properties":{"name":"Majestic","cat":"stay","rank":5,"kind":"motel"},"geometry":{"type":"Point","coordinates":[142.20482,-36.7297]}},{"type":"Feature","properties":{"name":"Masala","cat":"shop","rank":5,"kind":"restaurant"},"geometry":{"type":"Point","coordinates":[142.19955,-36.7125]}},{"type":"Feature","properties":{"name":"Mid City Motel","cat":"stay","rank":5,"kind":"motel"},"geometry":{"type":"Point","coordinates":[142.19677,-36.71291]}},{"type":"Feature","properties":{"name":"Mitsubishi","cat":"shop","rank":5,"kind":"car"},"geometry":{"type":"Point","coordinates":[142.20373,-36.72251]}},{"type":"Feature","properties":{"name":"Mr Chef","cat":"shop","rank":5,"kind":"cafe"},"geometry":{"type":"Point","coordinates":[142.19987,-36.71471]}},{"type":"Feature","properties":{"name":"NAB","cat":"place","rank":5,"kind":"bank"},"geometry":{"type":"Point","coordinates":[142.19999,-36.71565]}},{"type":"Feature","properties":{"name":"Olde Horsham","cat":"stay","rank":5,"kind":"motel"},"geometry":{"type":"Point","coordinates":[142.21607,-36.74143]}},{"type":"Feature","properties":{"name":"Ploughmans","cat":"stay","rank":5,"kind":"motel"},"geometry":{"type":"Point","coordinates":[142.19555,-36.7099]}},{"type":"Feature","properties":{"name":"Poseidon","cat":"shop","rank":5,"kind":"fast_food"},"geometry":{"type":"Point","coordinates":[142.19985,-36.71214]}},{"type":"Feature","properties":{"name":"Pre-Mix King","cat":"shop","rank":5,"kind":"alcohol"},"geometry":{"type":"Point","coordinates":[142.19736,-36.71722]}},{"type":"Feature","properties":{"name":"Reddy Express","cat":"shop","rank":5,"kind":"convenience"},"geometry":{"type":"Point","coordinates":[142.19896,-36.71135]}},{"type":"Feature","properties":{"name":"Reject Shop","cat":"place","rank":5,"kind":"variety_store"},"geometry":{"type":"Point","coordinates":[142.19577,-36.71491]}},{"type":"Feature","properties":{"name":"Riverside Caravan Park","cat":"stay","rank":5,"kind":"caravan_site"},"geometry":{"type":"Point","coordinates":[142.19806,-36.72318]}},{"type":"Feature","properties":{"name":"Royal Hotel","cat":"shop","rank":5,"kind":"pub"},"geometry":{"type":"Point","coordinates":[142.19935,-36.71684]}},{"type":"Feature","properties":{"name":"Saengjan Thai","cat":"shop","rank":5,"kind":"restaurant"},"geometry":{"type":"Point","coordinates":[142.19784,-36.71563]}},{"type":"Feature","properties":{"name":"Shelton & Lane","cat":"place","rank":5,"kind":"stationery"},"geometry":{"type":"Point","coordinates":[142.19915,-36.71681]}},{"type":"Feature","properties":{"name":"Sports & Community Club","cat":"place","rank":5,"kind":"licensed_club"},"geometry":{"type":"Point","coordinates":[142.1986,-36.712]}},{"type":"Feature","properties":{"name":"Spotlight","cat":"place","rank":5,"kind":"fabric"},"geometry":{"type":"Point","coordinates":[142.19539,-36.71495]}},{"type":"Feature","properties":{"name":"Subway","cat":"shop","rank":5,"kind":"fast_food"},"geometry":{"type":"Point","coordinates":[142.19598,-36.71519]}},{"type":"Feature","properties":{"name":"Swift Wash","cat":"place","rank":5,"kind":"car_wash"},"geometry":{"type":"Point","coordinates":[142.19752,-36.71075]}},{"type":"Feature","properties":{"name":"Tesla","cat":"fuel","rank":5,"kind":"charging_station"},"geometry":{"type":"Point","coordinates":[142.19644,-36.71586]}},{"type":"Feature","properties":{"name":"Thai Basil","cat":"shop","rank":5,"kind":"restaurant"},"geometry":{"type":"Point","coordinates":[142.19738,-36.71707]}},{"type":"Feature","properties":{"name":"Town House","cat":"stay","rank":5,"kind":"motel"},"geometry":{"type":"Point","coordinates":[142.20034,-36.71444]}},{"type":"Feature","properties":{"name":"Toyworld","cat":"place","rank":5,"kind":"toys"},"geometry":{"type":"Point","coordinates":[142.19889,-36.71564]}},{"type":"Feature","properties":{"name":"Una Sosta","cat":"shop","rank":5,"kind":"cafe"},"geometry":{"type":"Point","coordinates":[142.19739,-36.71195]}},{"type":"Feature","properties":{"name":"Victoria Hotel","cat":"shop","rank":5,"kind":"pub"},"geometry":{"type":"Point","coordinates":[142.19651,-36.71025]}},{"type":"Feature","properties":{"name":"Waack's","cat":"shop","rank":5,"kind":"bakery"},"geometry":{"type":"Point","coordinates":[142.19944,-36.71331]}},{"type":"Feature","properties":{"name":"Wades","cat":"shop","rank":5,"kind":"hardware"},"geometry":{"type":"Point","coordinates":[142.20114,-36.71509]}},{"type":"Feature","properties":{"name":"West Side","cat":"shop","rank":5,"kind":"bar"},"geometry":{"type":"Point","coordinates":[142.18754,-36.71532]}},{"type":"Feature","properties":{"name":"Westpac","cat":"place","rank":5,"kind":"bank"},"geometry":{"type":"Point","coordinates":[142.19992,-36.71625]}},{"type":"Feature","properties":{"name":"Wheatfields","cat":"stay","rank":5,"kind":"motel"},"geometry":{"type":"Point","coordinates":[142.20595,-36.73201]}},{"type":"Feature","properties":{"name":"White Hart","cat":"shop","rank":5,"kind":"pub"},"geometry":{"type":"Point","coordinates":[142.19993,-36.71451]}},{"type":"Feature","properties":{"name":"Wilsons Hotel","cat":"shop","rank":5,"kind":"pub"},"geometry":{"type":"Point","coordinates":[142.19883,-36.71683]}},{"type":"Feature","properties":{"name":"Wimmera Bolts","cat":"shop","rank":5,"kind":"hardware"},"geometry":{"type":"Point","coordinates":[142.19762,-36.71617]}},{"type":"Feature","properties":{"name":"Wimmera Outdoors","cat":"place","rank":5,"kind":"outdoor"},"geometry":{"type":"Point","coordinates":[142.20315,-36.71839]}},{"type":"Feature","properties":{"name":"myCar","cat":"place","rank":5,"kind":"car_repair"},"geometry":{"type":"Point","coordinates":[142.19619,-36.71577]}}]}